{
  "type": "FeatureCollection",
  "features": [
    {
      "type": "Feature",
      "properties": {
        "norad_id": 33913,
        "name": "COSMOS 2251 DEB",
        "group": "cosmos-2251-debris",
        "lat": -67.51846280831055,
        "lon": 138.79090792074535,
        "alt_km": 703.2471306378375,
        "timestamp": "2025-12-13T07:35:41.897884+00:00",
        "meta_object_name": "COSMOS 2251 DEB",
        "meta_object_id": "1993-036DS",
        "meta_epoch": "2025-12-12T22:39:38.786688",
        "meta_mean_motion": 14.48487532,
        "meta_eccentricity": 0.00481662,
        "meta_inclination": 74.0335,
        "meta_ra_of_asc_node": 183.2624,
        "meta_arg_of_pericenter": 285.7897,
        "meta_mean_anomaly": 219.8904,
        "meta_ephemeris_type": 0,
        "meta_classification_type": "U",
        "meta_norad_cat_id": 33913,
        "meta_element_set_no": 999,
        "meta_rev_at_epoch": 88460,
        "meta_bstar": 0.00082008727,
        "meta_mean_motion_dot": 3.095e-05,
        "meta_mean_motion_ddot": 0,
        "tle_line1": "1 33913U 93036DS  25346.94419892  .00003095  00000+0  82009-3 0  9994",
        "tle_line2": "2 33913  74.0335 183.2624 0048166 285.7897 219.8904 14.48487532884605"
      },
      "geometry": {
        "type": "Point",
        "coordinates": [
          138.79090792074535,
          -67.51846280831055
        ]
      }
    },
    {
      "type": "Feature",
      "properties": {
        "norad_id": 33914,
        "name": "COSMOS 2251 DEB",
        "group": "cosmos-2251-debris",
        "lat": 73.91705699925637,
        "lon": 112.57783388140021,
        "alt_km": 782.2428595244719,
        "timestamp": "2025-12-13T07:35:41.897893+00:00",
        "meta_object_name": "COSMOS 2251 DEB",
        "meta_object_id": "1993-036DT",
        "meta_epoch": "2025-12-12T19:43:04.416960",
        "meta_mean_motion": 13.71985283,
        "meta_eccentricity": 0.03011661,
        "meta_inclination": 74.0913,
        "meta_ra_of_asc_node": 14.96,
        "meta_arg_of_pericenter": 117.9797,
        "meta_mean_anomaly": 52.4125,
        "meta_ephemeris_type": 0,
        "meta_classification_type": "U",
        "meta_norad_cat_id": 33914,
        "meta_element_set_no": 999,
        "meta_rev_at_epoch": 84082,
        "meta_bstar": 0.00052148492,
        "meta_mean_motion_dot": 6.35e-06,
        "meta_mean_motion_ddot": 0,
        "tle_line1": "1 33914U 93036DT  25346.82157890  .00000635  00000+0  52148-3 0  9997",
        "tle_line2": "2 33914  74.0913  14.9600 0301166 117.9797  52.4125 13.71985283840822"
      },
      "geometry": {
        "type": "Point",
        "coordinates": [
          112.57783388140021,
          73.91705699925637
        ]
      }
    },
    {
      "type": "Feature",
      "properties": {
        "norad_id": 33915,
        "name": "COSMOS 2251 DEB",
        "group": "cosmos-2251-debris",
        "lat": -14.194088121791593,
        "lon": 28.90113940311721,
        "alt_km": 836.0428126673687,
        "timestamp": "2025-12-13T07:35:41.897903+00:00",
        "meta_object_name": "COSMOS 2251 DEB",
        "meta_object_id": "1993-036DU",
        "meta_epoch": "2025-12-12T13:58:56.659008",
        "meta_mean_motion": 14.35083468,
        "meta_eccentricity": 0.01043971,
        "meta_inclination": 74.0444,
        "meta_ra_of_asc_node": 34.395,
        "meta_arg_of_pericenter": 126.9959,
        "meta_mean_anomaly": 29.3088,
        "meta_ephemeris_type": 0,
        "meta_classification_type": "U",
        "meta_norad_cat_id": 33915,
        "meta_element_set_no": 999,
        "meta_rev_at_epoch": 87755,
        "meta_bstar": 0.0006176592,
        "meta_mean_motion_dot": 1.848e-05,
        "meta_mean_motion_ddot": 0,
        "tle_line1": "1 33915U 93036DU  25346.58260022  .00001848  00000+0  61766-3 0  9996",
        "tle_line2": "2 33915  74.0444  34.3950 0104397 126.9959  29.3088 14.35083468877559"
      },
      "geometry": {
        "type": "Point",
        "coordinates": [
          28.90113940311721,
          -14.194088121791593
        ]
      }
    },
    {
      "type": "Feature",
      "properties": {
        "norad_id": 33916,
        "name": "COSMOS 2251 DEB",
        "group": "cosmos-2251-debris",
        "lat": -5.046879668898843,
        "lon": 38.1945837948062,
        "alt_km": 1197.1952379162503,
        "timestamp": "2025-12-13T07:35:41.897913+00:00",
        "meta_object_name": "COSMOS 2251 DEB",
        "meta_object_id": "1993-036DV",
        "meta_epoch": "2025-12-12T21:58:23.450016",
        "meta_mean_motion": 13.68614555,
        "meta_eccentricity": 0.03253207,
        "meta_inclination": 74.0528,
        "meta_ra_of_asc_node": 40.2999,
        "meta_arg_of_pericenter": 212.4011,
        "meta_mean_anomaly": 325.652,
        "meta_ephemeris_type": 0,
        "meta_classification_type": "U",
        "meta_norad_cat_id": 33916,
        "meta_element_set_no": 999,
        "meta_rev_at_epoch": 83893,
        "meta_bstar": 0.00067046618,
        "meta_mean_motion_dot": 8.1e-06,
        "meta_mean_motion_ddot": 0,
        "tle_line1": "1 33916U 93036DV  25346.91554919  .00000810  00000+0  67047-3 0  9991",
        "tle_line2": "2 33916  74.0528  40.2999 0325320 212.4011 325.6520 13.68614555838937"
      },
      "geometry": {
        "type": "Point",
        "coordinates": [
          38.1945837948062,
          -5.046879668898843
        ]
      }
    },
    {
      "type": "Feature",
      "properties": {
        "norad_id": 33917,
        "name": "COSMOS 2251 DEB",
        "group": "cosmos-2251-debris",
        "lat": 63.33993844373137,
        "lon": 156.02067962386934,
        "alt_km": 1213.334080480794,
        "timestamp": "2025-12-13T07:35:41.897922+00:00",
        "meta_object_name": "COSMOS 2251 DEB",
        "meta_object_id": "1993-036DW",
        "meta_epoch": "2025-12-12T18:58:05.685312",
        "meta_mean_motion": 13.69359785,
        "meta_eccentricity": 0.0331277,
        "meta_inclination": 74.1068,
        "meta_ra_of_asc_node": 122.3104,
        "meta_arg_of_pericenter": 223.2583,
        "meta_mean_anomaly": 134.2088,
        "meta_ephemeris_type": 0,
        "meta_classification_type": "U",
        "meta_norad_cat_id": 33917,
        "meta_element_set_no": 999,
        "meta_rev_at_epoch": 83734,
        "meta_bstar": 0.0011169859,
        "meta_mean_motion_dot": 1.404e-05,
        "meta_mean_motion_ddot": 0,
        "tle_line1": "1 33917U 93036DW  25346.79034358  .00001404  00000+0  11170-2 0  9993",
        "tle_line2": "2 33917  74.1068 122.3104 0331277 223.2583 134.2088 13.69359785837349"
      },
      "geometry": {
        "type": "Point",
        "coordinates": [
          156.02067962386934,
          63.33993844373137
        ]
      }
    },
    {
      "type": "Feature",
      "properties": {
        "norad_id": 33920,
        "name": "COSMOS 2251 DEB",
        "group": "cosmos-2251-debris",
        "lat": -22.468348969312707,
        "lon": -69.45542910097,
        "alt_km": 680.9366666647093,
        "timestamp": "2025-12-13T07:35:41.897931+00:00",
        "meta_object_name": "COSMOS 2251 DEB",
        "meta_object_id": "1993-036DZ",
        "meta_epoch": "2025-12-12T21:49:22.389888",
        "meta_mean_motion": 14.58282401,
        "meta_eccentricity": 0.00382268,
        "meta_inclination": 74.0611,
        "meta_ra_of_asc_node": 298.1055,
        "meta_arg_of_pericenter": 304.8818,
        "meta_mean_anomaly": 54.8755,
        "meta_ephemeris_type": 0,
        "meta_classification_type": "U",
        "meta_norad_cat_id": 33920,
        "meta_element_set_no": 999,
        "meta_rev_at_epoch": 88117,
        "meta_bstar": 0.0028033776,
        "meta_mean_motion_dot": 0.00013086,
        "meta_mean_motion_ddot": 0,
        "tle_line1": "1 33920U 93036DZ  25346.90928692  .00013086  00000+0  28034-2 0  9999",
        "tle_line2": "2 33920  74.0611 298.1055 0038226 304.8818  54.8755 14.58282401881175"
      },
      "geometry": {
        "type": "Point",
        "coordinates": [
          -69.45542910097,
          -22.468348969312707
        ]
      }
    },
    {
      "type": "Feature",
      "properties": {
        "norad_id": 33922,
        "name": "COSMOS 2251 DEB",
        "group": "cosmos-2251-debris",
        "lat": 71.18475157028355,
        "lon": -90.40908310731234,
        "alt_km": 735.2753737580651,
        "timestamp": "2025-12-13T07:35:41.897940+00:00",
        "meta_object_name": "COSMOS 2251 DEB",
        "meta_object_id": "1993-036EB",
        "meta_epoch": "2025-12-12T21:46:05.689056",
        "meta_mean_motion": 14.49508426,
        "meta_eccentricity": 0.00232984,
        "meta_inclination": 74.0467,
        "meta_ra_of_asc_node": 147.4495,
        "meta_arg_of_pericenter": 258.1211,
        "meta_mean_anomaly": 226.337,
        "meta_ephemeris_type": 0,
        "meta_classification_type": "U",
        "meta_norad_cat_id": 33922,
        "meta_element_set_no": 999,
        "meta_rev_at_epoch": 88580,
        "meta_bstar": 0.00077230316,
        "meta_mean_motion_dot": 2.944e-05,
        "meta_mean_motion_ddot": 0,
        "tle_line1": "1 33922U 93036EB  25346.90701029  .00002944  00000+0  77230-3 0  9998",
        "tle_line2": "2 33922  74.0467 147.4495 0023298 258.1211 226.3370 14.49508426885802"
      },
      "geometry": {
        "type": "Point",
        "coordinates": [
          -90.40908310731234,
          71.18475157028355
        ]
      }
    }
  ]
}